{"type": "FeatureCollection", "features": [ {"type": "Feature", "properties": {"norad_id": 66857, "name": "STARLINK-36083", "group": "last-30-days", "lat": 41.399647815815605, "lon": -165.09549073928864, "alt_km": 339.26351167081157, "timestamp": "2025-12-18T15:47:09.960935+00:00", "meta": {"OBJECT_NAME": "STARLINK-36083", "OBJECT_ID": "2025-281K", "EPOCH": "2025-12-18T06:00:02.999808", "MEAN_MOTION": 15.75651346, "ECCENTRICITY": 0.00014316, "INCLINATION": 43.0006, "RA_OF_ASC_NODE": 88.4785, "ARG_OF_PERICENTER": 263.6665, "MEAN_ANOMALY": 45.3672, "EPHEMERIS_TYPE": 0, "CLASSIFICATION_TYPE": "U", "NORAD_CAT_ID": 66857, "ELEMENT_SET_NO": 999, "REV_AT_EPOCH": 228, "BSTAR": -0.0058019734, "MEAN_MOTION_DOT": -0.00830825, "MEAN_MOTION_DDOT": 0}, "tle": {"line1": "1 66857U 25281K   25352.25003472 -.00830825  00000+0 -58020-2 0  9994", "line2": "2 66857  43.0006  88.4785 0001431 263.6665  45.3672 15.75651346  2282"}}, "geometry": {"type": "Point", "coordinates": [-165.09549073928864, 41.399647815815605]}}, {"type": "Feature", "properties": {"norad_id": 66858, "name": "STARLINK-35118", "group": "last-30-days", "lat": 40.95099455640509, "lon": -162.63051825516905, "alt_km": 339.2790787316362, "timestamp": "2025-12-18T15:47:09.960945+00:00", "meta": {"OBJECT_NAME": "STARLINK-35118", "OBJECT_ID": "2025-281L", "EPOCH": "2025-12-18T06:00:02.999808", "MEAN_MOTION": 15.7549725, "ECCENTRICITY": 0.00014287, "INCLINATION": 43.0008, "RA_OF_ASC_NODE": 88.4733, "ARG_OF_PERICENTER": 261.949, "MEAN_ANOMALY": 49.1054, "EPHEMERIS_TYPE": 0, "CLASSIFICATION_TYPE": "U", "NORAD_CAT_ID": 66858, "ELEMENT_SET_NO": 999, "REV_AT_EPOCH": 207, "BSTAR": -0.0045704813, "MEAN_MOTION_DOT": -0.00663197, "MEAN_MOTION_DDOT": 0}, "tle": {"line1": "1 66858U 25281L   25352.25003472 -.00663197  00000+0 -45705-2 0  9997", "line2": "2 66858  43.0008  88.4733 0001428 261.9490  49.1054 15.75497250  2076"}}, "geometry": {"type": "Point", "coordinates": [-162.63051825516905, 40.95099455640509]}}, {"type": "Feature", "properties": {"norad_id": 66859, "name": "STARLINK-35646", "group": "last-30-days", "lat": 40.449154610495725, "lon": -160.1964781734762, "alt_km": 339.26670649167045, "timestamp": "2025-12-18T15:47:09.960957+00:00", "meta": {"OBJECT_NAME": "STARLINK-35646", "OBJECT_ID": "2025-281M", "EPOCH": "2025-12-18T06:00:02.999808", "MEAN_MOTION": 15.75329179, "ECCENTRICITY": 0.00013359, "INCLINATION": 43.0007, "RA_OF_ASC_NODE": 88.4682, "ARG_OF_PERICENTER": 270.5899, "MEAN_ANOMALY": 42.486, "EPHEMERIS_TYPE": 0, "CLASSIFICATION_TYPE": "U", "NORAD_CAT_ID": 66859, "ELEMENT_SET_NO": 999, "REV_AT_EPOCH": 228, "BSTAR": -0.0031156387, "MEAN_MOTION_DOT": -0.00459713, "MEAN_MOTION_DDOT": 0}, "tle": {"line1": "1 66859U 25281M   25352.25003472 -.00459713  00000+0 -31156-2 0  9990", "line2": "2 66859  43.0007  88.4682 0001335 270.5899  42.4860 15.75329179  2283"}}, "geometry": {"type": "Point", "coordinates": [-160.1964781734762, 40.449154610495725]}}, {"type": "Feature", "properties": {"norad_id": 66860, "name": "STARLINK-35987", "group": "last-30-days", "lat": 37.218205129477774, "lon": -148.6270452759248, "alt_km": 339.3836778862187, "timestamp": "2025-12-18T15:47:09.960967+00:00", "meta": {"OBJECT_NAME": "STARLINK-35987", "OBJECT_ID": "2025-281N", "EPOCH": "2025-12-18T06:00:02.999808", "MEAN_MOTION": 15.75053012, "ECCENTRICITY": 0.00013097, "INCLINATION": 43.0005, "RA_OF_ASC_NODE": 88.4434, "ARG_OF_PERICENTER": 262.1229, "MEAN_ANOMALY": 60.6728, "EPHEMERIS_TYPE": 0, "CLASSIFICATION_TYPE": "U", "NORAD_CAT_ID": 66860, "ELEMENT_SET_NO": 999, "REV_AT_EPOCH": 228, "BSTAR": -0.00029779935, "MEAN_MOTION_DOT": -0.00046, "MEAN_MOTION_DDOT": 0}, "tle": {"line1": "1 66860U 25281N   25352.25003472 -.00046000  00000+0 -29780-3 0  9994", "line2": "2 66860  43.0005  88.4434 0001309 262.1229  60.6728 15.75053012  2288"}}, "geometry": {"type": "Point", "coordinates": [-148.6270452759248, 37.218205129477774]}}, {"type": "Feature", "properties": {"norad_id": 66861, "name": "STARLINK-35991", "group": "last-30-days", "lat": 39.29404400335827, "lon": -155.43629442941577, "alt_km": 339.2598542330861, "timestamp": "2025-12-18T15:47:09.960977+00:00", "meta": {"OBJECT_NAME": "STARLINK-35991", "OBJECT_ID": "2025-281P", "EPOCH": "2025-12-18T06:00:02.999808", "MEAN_MOTION": 15.75072264, "ECCENTRICITY": 0.00017347, "INCLINATION": 43.0008, "RA_OF_ASC_NODE": 88.4584, "ARG_OF_PERICENTER": 255.7089, "MEAN_ANOMALY": 61.3304, "EPHEMERIS_TYPE": 0, "CLASSIFICATION_TYPE": "U", "NORAD_CAT_ID": 66861, "ELEMENT_SET_NO": 999, "REV_AT_EPOCH": 228, "BSTAR": -0.00036694544, "MEAN_MOTION_DOT": -0.0005655, "MEAN_MOTION_DDOT": 0}, "tle": {"line1": "1 66861U 25281P   25352.25003472 -.00056550  00000+0 -36695-3 0  9999", "line2": "2 66861  43.0008  88.4584 0001734 255.7089  61.3304 15.75072264  2280"}}, "geometry": {"type": "Point", "coordinates": [-155.43629442941577, 39.29404400335827]}}, {"type": "Feature", "properties": {"norad_id": 66862, "name": "STARLINK-35974", "group": "last-30-days", "lat": 39.8951988036659, "lon": -157.79191235490376, "alt_km": 339.4050023374675, "timestamp": "2025-12-18T15:47:09.960987+00:00", "meta": {"OBJECT_NAME": "STARLINK-35974", "OBJECT_ID": "2025-281Q", "EPOCH": "2025-12-18T06:00:02.999808", "MEAN_MOTION": 15.7512144, "ECCENTRICITY": 0.0001965, "INCLINATION": 43.0009, "RA_OF_ASC_NODE": 88.4636, "ARG_OF_PERICENTER": 264.8145, "MEAN_ANOMALY": 50.2692, "EPHEMERIS_TYPE": 0, "CLASSIFICATION_TYPE": "U", "NORAD_CAT_ID": 66862, "ELEMENT_SET_NO": 999, "REV_AT_EPOCH": 218, "BSTAR": -0.00071787409, "MEAN_MOTION_DOT": -0.00109729, "MEAN_MOTION_DDOT": 0}, "tle": {"line1": "1 66862U 25281Q   25352.25003472 -.00109729  00000+0 -71787-3 0  9998", "line2": "2 66862  43.0009  88.4636 0001965 264.8145  50.2692 15.75121440  2187"}}, "geometry": {"type": "Point", "coordinates": [-157.79191235490376, 39.8951988036659]}}, {"type": "Feature", "properties": {"norad_id": 66863, "name": "STARLINK-36134", "group": "last-30-days", "lat": 38.64444661064636, "lon": -153.11690647928847, "alt_km": 339.2281669290078, "timestamp": "2025-12-18T15:47:09.960996+00:00", "meta": {"OBJECT_NAME": "STARLINK-36134", "OBJECT_ID": "2025-281R", "EPOCH": "2025-12-18T06:00:02.999808", "MEAN_MOTION": 15.75058183, "ECCENTRICITY": 0.00014816, "INCLINATION": 43.0006, "RA_OF_ASC_NODE": 88.4536, "ARG_OF_PERICENTER": 256.4015, "MEAN_ANOMALY": 62.5699, "EPHEMERIS_TYPE": 0, "CLASSIFICATION_TYPE": "U", "NORAD_CAT_ID": 66863, "ELEMENT_SET_NO": 999, "REV_AT_EPOCH": 228, "BSTAR": -0.0003138069, "MEAN_MOTION_DOT": -0.00048445, "MEAN_MOTION_DDOT": 0}, "tle": {"line1": "1 66863U 25281R   25352.25003472 -.00048445  00000+0 -31381-3 0  9992", "line2": "2 66863  43.0006  88.4536 0001481 256.4015  62.5699 15.75058183  2287"}}, "geometry": {"type": "Point", "coordinates": [-153.11690647928847, 38.64444661064636]}}, {"type": "Feature", "properties": {"norad_id": 66864, "name": "STARLINK-36070", "group": "last-30-days", "lat": 37.94883998669866, "lon": -150.83703542117948, "alt_km": 339.4450360118344, "timestamp": "2025-12-18T15:47:09.961008+00:00", "meta": {"OBJECT_NAME": "STARLINK-36070", "OBJECT_ID": "2025-281S", "EPOCH": "2025-12-18T06:00:02.999808", "MEAN_MOTION": 15.75055765, "ECCENTRICITY": 0.00014673, "INCLINATION": 43.0008, "RA_OF_ASC_NODE": 88.4485, "ARG_OF_PERICENTER": 274.1986, "MEAN_ANOMALY": 46.6893, "EPHEMERIS_TYPE": 0, "CLASSIFICATION_TYPE": "U", "NORAD_CAT_ID": 66864, "ELEMENT_SET_NO": 999, "REV_AT_EPOCH": 231, "BSTAR": -0.00027389399, "MEAN_MOTION_DOT": -0.00042369, "MEAN_MOTION_DDOT": 0}, "tle": {"line1": "1 66864U 25281S   25352.25003472 -.00042369  00000+0 -27389-3 0  9995", "line2": "2 66864  43.0008  88.4485 0001467 274.1986  46.6893 15.75055765  2317"}}, "geometry": {"type": "Point", "coordinates": [-150.83703542117948, 37.94883998669866]}}, {"type": "Feature", "properties": {"norad_id": 66865, "name": "STARLINK-36117", "group": "last-30-days", "lat": 36.43702983549321, "lon": -146.43066903475764, "alt_km": 339.68132035640156, "timestamp": "2025-12-18T15:47:09.961042+00:00", "meta": {"OBJECT_NAME": "STARLINK-36117", "OBJECT_ID": "2025-281T", "EPOCH": "2025-12-18T06:00:02.999808", "MEAN_MOTION": 15.75046962, "ECCENTRICITY": 0.00017828, "INCLINATION": 43.0008, "RA_OF_ASC_NODE": 88.4393, "ARG_OF_PERICENTER": 259.1742, "MEAN_ANOMALY": 65.5456, "EPHEMERIS_TYPE": 0, "CLASSIFICATION_TYPE": "U", "NORAD_CAT_ID": 66865, "ELEMENT_SET_NO": 999, "REV_AT_EPOCH": 228, "BSTAR": -0.00015139718, "MEAN_MOTION_DOT": -0.00023677, "MEAN_MOTION_DDOT": 0}, "tle": {"line1": "1 66865U 25281T   25352.25003472 -.00023677  00000+0 -15140-3 0  9999", "line2": "2 66865  43.0008  88.4393 0001782 259.1742  65.5456 15.75046962  2289"}}, "geometry": {"type": "Point", "coordinates": [-146.43066903475764, 36.43702983549321]}}, {"type": "Feature", "properties": {"norad_id": 66866, "name": "STARLINK-36126", "group": "last-30-days", "lat": 35.62013958652113, "lon": -144.29113012269616, "alt_km": 339.64923318524416, "timestamp": "2025-12-18T15:47:09.961073+00:00", "meta": {"OBJECT_NAME": "STARLINK-36126", "OBJECT_ID": "2025-281U", "EPOCH": "2025-12-18T06:00:02.999808", "MEAN_MOTION": 15.75046075, "ECCENTRICITY": 0.00015478, "INCLINATION": 43.0006, "RA_OF_ASC_NODE": 88.4343, "ARG_OF_PERICENTER": 255.4044, "MEAN_ANOMALY": 71.2379, "EPHEMERIS_TYPE": 0, "CLASSIFICATION_TYPE": "U", "NORAD_CAT_ID": 66866, "ELEMENT_SET_NO": 999, "REV_AT_EPOCH": 231, "BSTAR": -0.00022631691, "MEAN_MOTION_DOT": -0.00035108, "MEAN_MOTION_DDOT": 0}, "tle": {"line1": "1 66866U 25281U   25352.25003472 -.00035108  00000+0 -22632-3 0  9996", "line2": "2 66866  43.0006  88.4343 0001547 255.4044  71.2379 15.75046075  2313"}}, "geometry": {"type": "Point", "coordinates": [-144.29113012269616, 35.62013958652113]}}]}